{"fetched_at":"2026-03-29T02:12:04Z","count":15717,"tles":[{"name":"USA 342","line1":"1 55263U 23008A   26086.26711343  .00000000  00000+0  00000+0 0  9991","line2":"2 55263   0.0167 183.2424 0000114 195.5065 285.9229  1.00269249 11695","category":"Military"}]}